[{"OBJECT_NAME":"STARLINK-30942","OBJECT_ID":"2023-183E","EPOCH":"2026-03-09T23:17:36.085056","MEAN_MOTION":15.26676522,"ECCENTRICITY":9.647e-5,"INCLINATION":43.0005,"RA_OF_ASC_NODE":39.4891,"ARG_OF_PERICENTER":270.921,"MEAN_ANOMALY":89.1531,"EPHEMERIS_TYPE":0,"CLASSIFICATION_TYPE":"U","NORAD_CAT_ID":58441,"ELEMENT_SET_NO":999,"REV_AT_EPOCH":12678,"BSTAR":0.00048321927,"MEAN_MOTION_DOT":0.00012699,"MEAN_MOTION_DDOT":0},{"OBJECT_NAME":"OKEAN-1","OBJECT_ID":"1988-056A","EPOCH":"2026-03-09T21:19:04.260000","MEAN_MOTION":15.31672069,"ECCENTRICITY":0.00129431,"INCLINATION":82.4671,"RA_OF_ASC_NODE":262.7586,"ARG_OF_PERICENTER":168.0696,"MEAN_ANOMALY":192.0855,"EPHEMERIS_TYPE":0,"CLASSIFICATION_TYPE":"U","NORAD_CAT_ID":19274,"ELEMENT_SET_NO":999,"REV_AT_EPOCH":3511,"BSTAR":0.00038371192,"MEAN_MOTION_DOT":0.00011798,"MEAN_MOTION_DDOT":0}]
